<?xml version="1.0" encoding="UTF-8"?>
<ndm xmlns:xsi="http://www.w3.org/2001/XMLSchema-instance" xsi:noNamespaceSchemaLocation="https://sanaregistry.org/r/ndmxml_unqualified/ndmxml-2.0.0-master-2.0.xsd">
<omm id="CCSDS_OMM_VERS" version="2.0">
<header><CREATION_DATE/><ORIGINATOR/></header><body><segment><metadata><OBJECT_NAME>KUIPER-00089</OBJECT_NAME><OBJECT_ID>2025-151U</OBJECT_ID><CENTER_NAME>EARTH</CENTER_NAME><REF_FRAME>TEME</REF_FRAME><TIME_SYSTEM>UTC</TIME_SYSTEM><MEAN_ELEMENT_THEORY>SGP4</MEAN_ELEMENT_THEORY></metadata><data><meanElements><EPOCH>2025-08-01T05:09:46.076832</EPOCH><MEAN_MOTION>15.35292552</MEAN_MOTION><ECCENTRICITY>.0005527</ECCENTRICITY><INCLINATION>51.8780</INCLINATION><RA_OF_ASC_NODE>210.7543</RA_OF_ASC_NODE><ARG_OF_PERICENTER>211.3611</ARG_OF_PERICENTER><MEAN_ANOMALY>148.7046</MEAN_ANOMALY></meanElements><tleParameters><EPHEMERIS_TYPE>0</EPHEMERIS_TYPE><CLASSIFICATION_TYPE>U</CLASSIFICATION_TYPE><NORAD_CAT_ID>64834</NORAD_CAT_ID><ELEMENT_SET_NO>999</ELEMENT_SET_NO><REV_AT_EPOCH>244</REV_AT_EPOCH><BSTAR>.50867E-3</BSTAR><MEAN_MOTION_DOT>.17364E-3</MEAN_MOTION_DOT><MEAN_MOTION_DDOT>0</MEAN_MOTION_DDOT></tleParameters></data></segment></body></omm>
<omm id="CCSDS_OMM_VERS" version="2.0">
<header><CREATION_DATE/><ORIGINATOR/></header><body><segment><metadata><OBJECT_NAME>KUIPER-00090</OBJECT_NAME><OBJECT_ID>2025-151V</OBJECT_ID><CENTER_NAME>EARTH</CENTER_NAME><REF_FRAME>TEME</REF_FRAME><TIME_SYSTEM>UTC</TIME_SYSTEM><MEAN_ELEMENT_THEORY>SGP4</MEAN_ELEMENT_THEORY></metadata><data><meanElements><EPOCH>2025-07-31T21:24:24.534432</EPOCH><MEAN_MOTION>15.35109164</MEAN_MOTION><ECCENTRICITY>.0005715</ECCENTRICITY><INCLINATION>51.8776</INCLINATION><RA_OF_ASC_NODE>212.3354</RA_OF_ASC_NODE><ARG_OF_PERICENTER>217.1592</ARG_OF_PERICENTER><MEAN_ANOMALY>142.8999</MEAN_ANOMALY></meanElements><tleParameters><EPHEMERIS_TYPE>0</EPHEMERIS_TYPE><CLASSIFICATION_TYPE>U</CLASSIFICATION_TYPE><NORAD_CAT_ID>64835</NORAD_CAT_ID><ELEMENT_SET_NO>999</ELEMENT_SET_NO><REV_AT_EPOCH>239</REV_AT_EPOCH><BSTAR>.43706E-3</BSTAR><MEAN_MOTION_DOT>.14772E-3</MEAN_MOTION_DOT><MEAN_MOTION_DDOT>0</MEAN_MOTION_DDOT></tleParameters></data></segment></body></omm>
<omm id="CCSDS_OMM_VERS" version="2.0">
<header><CREATION_DATE/><ORIGINATOR/></header><body><segment><metadata><OBJECT_NAME>KUIPER-00091</OBJECT_NAME><OBJECT_ID>2025-151W</OBJECT_ID><CENTER_NAME>EARTH</CENTER_NAME><REF_FRAME>TEME</REF_FRAME><TIME_SYSTEM>UTC</TIME_SYSTEM><MEAN_ELEMENT_THEORY>SGP4</MEAN_ELEMENT_THEORY></metadata><data><meanElements><EPOCH>2025-08-01T05:03:05.211936</EPOCH><MEAN_MOTION>15.35801494</MEAN_MOTION><ECCENTRICITY>.0005805</ECCENTRICITY><INCLINATION>51.8774</INCLINATION><RA_OF_ASC_NODE>210.7193</RA_OF_ASC_NODE><ARG_OF_PERICENTER>189.4779</ARG_OF_PERICENTER><MEAN_ANOMALY>170.6098</MEAN_ANOMALY></meanElements><tleParameters><EPHEMERIS_TYPE>0</EPHEMERIS_TYPE><CLASSIFICATION_TYPE>U</CLASSIFICATION_TYPE><NORAD_CAT_ID>64836</NORAD_CAT_ID><ELEMENT_SET_NO>999</ELEMENT_SET_NO><REV_AT_EPOCH>244</REV_AT_EPOCH><BSTAR>.70341E-3</BSTAR><MEAN_MOTION_DOT>.24584E-3</MEAN_MOTION_DOT><MEAN_MOTION_DDOT>0</MEAN_MOTION_DDOT></tleParameters></data></segment></body></omm>
<omm id="CCSDS_OMM_VERS" version="2.0">
<header><CREATION_DATE/><ORIGINATOR/></header><body><segment><metadata><OBJECT_NAME>KUIPER-00092</OBJECT_NAME><OBJECT_ID>2025-151X</OBJECT_ID><CENTER_NAME>EARTH</CENTER_NAME><REF_FRAME>TEME</REF_FRAME><TIME_SYSTEM>UTC</TIME_SYSTEM><MEAN_ELEMENT_THEORY>SGP4</MEAN_ELEMENT_THEORY></metadata><data><meanElements><EPOCH>2025-08-01T05:06:13.869792</EPOCH><MEAN_MOTION>15.35588005</MEAN_MOTION><ECCENTRICITY>.0005382</ECCENTRICITY><INCLINATION>51.8769</INCLINATION><RA_OF_ASC_NODE>210.7313</RA_OF_ASC_NODE><ARG_OF_PERICENTER>198.5720</ARG_OF_PERICENTER><MEAN_ANOMALY>161.5070</MEAN_ANOMALY></meanElements><tleParameters><EPHEMERIS_TYPE>0</EPHEMERIS_TYPE><CLASSIFICATION_TYPE>U</CLASSIFICATION_TYPE><NORAD_CAT_ID>64837</NORAD_CAT_ID><ELEMENT_SET_NO>999</ELEMENT_SET_NO><REV_AT_EPOCH>365</REV_AT_EPOCH><BSTAR>.45319E-3</BSTAR><MEAN_MOTION_DOT>.15573E-3</MEAN_MOTION_DOT><MEAN_MOTION_DDOT>0</MEAN_MOTION_DDOT></tleParameters></data></segment></body></omm>
<omm id="CCSDS_OMM_VERS" version="2.0">
<header><CREATION_DATE/><ORIGINATOR/></header><body><segment><metadata><OBJECT_NAME>KUIPER-00093</OBJECT_NAME><OBJECT_ID>2025-151Y</OBJECT_ID><CENTER_NAME>EARTH</CENTER_NAME><REF_FRAME>TEME</REF_FRAME><TIME_SYSTEM>UTC</TIME_SYSTEM><MEAN_ELEMENT_THEORY>SGP4</MEAN_ELEMENT_THEORY></metadata><data><meanElements><EPOCH>2025-08-01T05:09:30.132576</EPOCH><MEAN_MOTION>15.35363741</MEAN_MOTION><ECCENTRICITY>.0005209</ECCENTRICITY><INCLINATION>51.8780</INCLINATION><RA_OF_ASC_NODE>210.7531</RA_OF_ASC_NODE><ARG_OF_PERICENTER>203.6340</ARG_OF_PERICENTER><MEAN_ANOMALY>156.4407</MEAN_ANOMALY></meanElements><tleParameters><EPHEMERIS_TYPE>0</EPHEMERIS_TYPE><CLASSIFICATION_TYPE>U</CLASSIFICATION_TYPE><NORAD_CAT_ID>64838</NORAD_CAT_ID><ELEMENT_SET_NO>999</ELEMENT_SET_NO><REV_AT_EPOCH>244</REV_AT_EPOCH><BSTAR>.43916E-3</BSTAR><MEAN_MOTION_DOT>.14968E-3</MEAN_MOTION_DOT><MEAN_MOTION_DDOT>0</MEAN_MOTION_DDOT></tleParameters></data></segment></body></omm>
<omm id="CCSDS_OMM_VERS" version="2.0">
<header><CREATION_DATE/><ORIGINATOR/></header><body><segment><metadata><OBJECT_NAME>KUIPER-00094</OBJECT_NAME><OBJECT_ID>2025-151Z</OBJECT_ID><CENTER_NAME>EARTH</CENTER_NAME><REF_FRAME>TEME</REF_FRAME><TIME_SYSTEM>UTC</TIME_SYSTEM><MEAN_ELEMENT_THEORY>SGP4</MEAN_ELEMENT_THEORY></metadata><data><meanElements><EPOCH>2025-08-01T03:31:50.498400</EPOCH><MEAN_MOTION>15.35650167</MEAN_MOTION><ECCENTRICITY>.0005213</ECCENTRICITY><INCLINATION>51.8772</INCLINATION><RA_OF_ASC_NODE>211.0433</RA_OF_ASC_NODE><ARG_OF_PERICENTER>195.9952</ARG_OF_PERICENTER><MEAN_ANOMALY>164.0870</MEAN_ANOMALY></meanElements><tleParameters><EPHEMERIS_TYPE>0</EPHEMERIS_TYPE><CLASSIFICATION_TYPE>U</CLASSIFICATION_TYPE><NORAD_CAT_ID>64839</NORAD_CAT_ID><ELEMENT_SET_NO>999</ELEMENT_SET_NO><REV_AT_EPOCH>266</REV_AT_EPOCH><BSTAR>.78248E-3</BSTAR><MEAN_MOTION_DOT>.27265E-3</MEAN_MOTION_DOT><MEAN_MOTION_DDOT>0</MEAN_MOTION_DDOT></tleParameters></data></segment></body></omm>
</ndm>
