KUIPER-00089            
1 64834U 25151U   25213.21511663  .00017364  00000+0  50867-3 0  9996
2 64834  51.8780 210.7543 0005527 211.3611 148.7046 15.35292552  2441
KUIPER-00090            
1 64835U 25151V   25212.89195063  .00014772  00000+0  43706-3 0  9996
2 64835  51.8776 212.3354 0005715 217.1592 142.8999 15.35109164  2398
KUIPER-00091            
1 64836U 25151W   25213.21047699  .00024584  00000+0  70341-3 0  9992
2 64836  51.8774 210.7193 0005805 189.4779 170.6098 15.35801494  2448
KUIPER-00092            
1 64837U 25151X   25213.21266053  .00015573  00000+0  45319-3 0  9995
2 64837  51.8769 210.7313 0005382 198.5720 161.5070 15.35588005  3657
KUIPER-00093            
1 64838U 25151Y   25213.21493209  .00014968  00000+0  43916-3 0  9999
2 64838  51.8780 210.7531 0005209 203.6340 156.4407 15.35363741  2448
KUIPER-00094            
1 64839U 25151Z   25213.14711225  .00027265  00000+0  78248-3 0  9993
2 64839  51.8772 211.0433 0005213 195.9952 164.0870 15.35650167  2666
